start=new Date('2021-09-21T00:00:00.000Z').valueOf();
sats=[{"TLE_LINE1":"1 45735U 20038F   21263.72381024 -.00000827  00000-0 -36669-4 0  9991","APOAPSIS":"547.995","MEAN_ELEMENT_THEORY":"SGP4","ARG_OF_PERICENTER":"127.4125","PERIOD":"95.593","ELEMENT_SET_NO":"999","SITE":"AFETR","CENTER_NAME":"EARTH","MEAN_MOTION":"15.06393751","MEAN_ANOMALY":"232.6964","OBJECT_TYPE":"PAYLOAD","NORAD_CAT_ID":"45735","SEMIMAJOR_AXIS":"6925.368","COUNTRY_CODE":"US","PERIAPSIS":"546.471","RCS_SIZE":"LARGE","TLE_LINE2":"2 45735  53.0561 358.3127 0001100 127.4125 232.6964 15.06393751 70367","REV_AT_EPOCH":"7036","LAUNCH_DATE":"2020-06-13","EPOCH":"2021-09-20T17:22:17.204736","EPHEMERIS_TYPE":"0","MEAN_MOTION_DOT":"-0.00000827","MEAN_MOTION_DDOT":"0.0000000000000","INCLINATION":"53.0561","OBJECT_ID":"2020-038F","FILE":"3121356","ECCENTRICITY":"0.00011000","BSTAR":"-0.00003666900000","OBJECT_NAME":"STARLINK-1471","GP_ID":"185122120","REF_FRAME":"TEME","RA_OF_ASC_NODE":"358.3127","DECAY_DATE":null,"CLASSIFICATION_TYPE":"U","TIME_SYSTEM":"UTC"},{"CENTER_NAME":"EARTH","MEAN_MOTION":"15.06381448","OBJECT_TYPE":"PAYLOAD","MEAN_ANOMALY":"241.2840","NORAD_CAT_ID":"45736","APOAPSIS":"548.219","MEAN_ELEMENT_THEORY":"SGP4","TLE_LINE1":"1 45736U 20038G   21263.43630888 -.00000191  00000-0  60498-5 0  9996","PERIOD":"95.593","ARG_OF_PERICENTER":"118.8287","SITE":"AFETR","ELEMENT_SET_NO":"999","RCS_SIZE":"LARGE","TLE_LINE2":"2 45736  53.0555 359.6028 0001370 118.8287 241.2840 15.06381448 70322","REV_AT_EPOCH":"7032","SEMIMAJOR_AXIS":"6925.405","COUNTRY_CODE":"US","PERIAPSIS":"546.322","FILE":"3121163","INCLINATION":"53.0555","OBJECT_ID":"2020-038G","ECCENTRICITY":"0.00013700","BSTAR":"0.00000604980000","LAUNCH_DATE":"2020-06-13","EPHEMERIS_TYPE":"0","EPOCH":"2021-09-20T10:28:17.087232","MEAN_MOTION_DDOT":"0.0000000000000","MEAN_MOTION_DOT":"-0.00000191","REF_FRAME":"TEME","DECAY_DATE":null,"RA_OF_ASC_NODE":"359.6028","TIME_SYSTEM":"UTC","CLASSIFICATION_TYPE":"U","OBJECT_NAME":"STARLINK-1472","GP_ID":"185095684"},{"ELEMENT_SET_NO":"999","SITE":"AFETR","PERIOD":"95.593","ARG_OF_PERICENTER":"115.2153","APOAPSIS":"547.935","MEAN_ELEMENT_THEORY":"SGP4","TLE_LINE1":"1 45738U 20038J   21263.31466766  .00001099  00000-0  92647-4 0  9994","NORAD_CAT_ID":"45738","OBJECT_TYPE":"PAYLOAD","MEAN_ANOMALY":"244.8940","CENTER_NAME":"EARTH","MEAN_MOTION":"15.06392240","PERIAPSIS":"546.540","COUNTRY_CODE":"US","SEMIMAJOR_AXIS":"6925.372","REV_AT_EPOCH":"7030","RCS_SIZE":"LARGE","TLE_LINE2":"2 45738  53.0543   0.1584 0001007 115.2153 244.8940 15.06392240 70306","MEAN_MOTION_DDOT":"0.0000000000000","MEAN_MOTION_DOT":"0.00001099","EPHEMERIS_TYPE":"0","EPOCH":"2021-09-20T07:33:07.285824","LAUNCH_DATE":"2020-06-13","BSTAR":"0.00009264700000","ECCENTRICITY":"0.00010070","FILE":"3121163","INCLINATION":"53.0543","OBJECT_ID":"2020-038J","GP_ID":"185095935","OBJECT_NAME":"STARLINK-1474","TIME_SYSTEM":"UTC","CLASSIFICATION_TYPE":"U","DECAY_DATE":null,"RA_OF_ASC_NODE":"0.1584","REF_FRAME":"TEME"},{"SITE":"AFETR","ELEMENT_SET_NO":"999","ARG_OF_PERICENTER":"104.5323","PERIOD":"95.593","MEAN_ELEMENT_THEORY":"SGP4","APOAPSIS":"547.606","TLE_LINE1":"1 45739U 20038K   21263.86019363 -.00000838  00000-0 -37417-4 0  9998","NORAD_CAT_ID":"45739","OBJECT_TYPE":"PAYLOAD","MEAN_ANOMALY":"255.5726","MEAN_MOTION":"15.06392954","CENTER_NAME":"EARTH","PERIAPSIS":"546.865","COUNTRY_CODE":"US","SEMIMAJOR_AXIS":"6925.370","REV_AT_EPOCH":"7094","TLE_LINE2":"2 45739  53.0550 317.6989 0000535 104.5323 255.5726 15.06392954 70948","RCS_SIZE":"LARGE","MEAN_MOTION_DDOT":"0.0000000000000","MEAN_MOTION_DOT":"-0.00000838","EPHEMERIS_TYPE":"0","EPOCH":"2021-09-20T20:38:40.729632","LAUNCH_DATE":"2020-06-13","BSTAR":"-0.00003741700000","ECCENTRICITY":"0.00005350","FILE":"3121356","OBJECT_ID":"2020-038K","INCLINATION":"53.0550","GP_ID":"185121870","OBJECT_NAME":"STARLINK-1475","TIME_SYSTEM":"UTC","CLASSIFICATION_TYPE":"U","DECAY_DATE":null,"RA_OF_ASC_NODE":"317.6989","REF_FRAME":"TEME"},{"PERIAPSIS":"546.504","SEMIMAJOR_AXIS":"6925.360","COUNTRY_CODE":"US","REV_AT_EPOCH":"7031","RCS_SIZE":"LARGE","TLE_LINE2":"2 45740  53.0558 359.8273 0001041 101.5997 258.5109 15.06396148 70317","SITE":"AFETR","ELEMENT_SET_NO":"999","MEAN_ELEMENT_THEORY":"SGP4","APOAPSIS":"547.946","TLE_LINE1":"1 45740U 20038L   21263.38838707 -.00000665  00000-0 -25759-4 0  9992","PERIOD":"95.592","ARG_OF_PERICENTER":"101.5997","OBJECT_TYPE":"PAYLOAD","MEAN_ANOMALY":"258.5109","NORAD_CAT_ID":"45740","CENTER_NAME":"EARTH","MEAN_MOTION":"15.06396148","GP_ID":"185094933","OBJECT_NAME":"STARLINK-1479","DECAY_DATE":null,"RA_OF_ASC_NODE":"359.8273","TIME_SYSTEM":"UTC","CLASSIFICATION_TYPE":"U","REF_FRAME":"TEME","MEAN_MOTION_DDOT":"0.0000000000000","MEAN_MOTION_DOT":"-0.00000665","LAUNCH_DATE":"2020-06-13","EPHEMERIS_TYPE":"0","EPOCH":"2021-09-20T09:19:16.642848","ECCENTRICITY":"0.00010410","BSTAR":"-0.00002575900000","FILE":"3121163","INCLINATION":"53.0558","OBJECT_ID":"2020-038L"},{"DECAY_DATE":null,"RA_OF_ASC_NODE":"359.3595","TIME_SYSTEM":"UTC","CLASSIFICATION_TYPE":"U","REF_FRAME":"TEME","GP_ID":"185095185","OBJECT_NAME":"STARLINK-1480","ECCENTRICITY":"0.00012190","BSTAR":"-0.00001569900000","FILE":"3121163","OBJECT_ID":"2020-038M","INCLINATION":"53.0563","MEAN_MOTION_DDOT":"0.0000000000000","MEAN_MOTION_DOT":"-0.00000515","LAUNCH_DATE":"2020-06-13","EPHEMERIS_TYPE":"0","EPOCH":"2021-09-20T11:47:54.531168","REV_AT_EPOCH":"7034","TLE_LINE2":"2 45741  53.0563 359.3595 0001219  96.8293 263.2835 15.06385875 70345","RCS_SIZE":"LARGE","PERIAPSIS":"546.413","SEMIMAJOR_AXIS":"6925.392","COUNTRY_CODE":"US","OBJECT_TYPE":"PAYLOAD","MEAN_ANOMALY":"263.2835","NORAD_CAT_ID":"45741","CENTER_NAME":"EARTH","MEAN_MOTION":"15.06385875","SITE":"AFETR","ELEMENT_SET_NO":"999","MEAN_ELEMENT_THEORY":"SGP4","APOAPSIS":"548.101","TLE_LINE1":"1 45741U 20038M   21263.49160337 -.00000515  00000-0 -15699-4 0  9998","PERIOD":"95.593","ARG_OF_PERICENTER":"96.8293"},{"COUNTRY_CODE":"US","SEMIMAJOR_AXIS":"6925.366","PERIAPSIS":"546.574","TLE_LINE2":"2 45742  53.0554 358.1971 0000949 118.7729 241.3356 15.06394180 70364","RCS_SIZE":"LARGE","REV_AT_EPOCH":"7036","PERIOD":"95.593","ARG_OF_PERICENTER":"118.7729","TLE_LINE1":"1 45742U 20038N   21263.74961642 -.00000710  00000-0 -28793-4 0  9991","MEAN_ELEMENT_THEORY":"SGP4","APOAPSIS":"547.889","SITE":"AFETR","ELEMENT_SET_NO":"999","CENTER_NAME":"EARTH","MEAN_MOTION":"15.06394180","NORAD_CAT_ID":"45742","MEAN_ANOMALY":"241.3356","OBJECT_TYPE":"PAYLOAD","OBJECT_NAME":"STARLINK-1481","GP_ID":"185121119","REF_FRAME":"TEME","CLASSIFICATION_TYPE":"U","TIME_SYSTEM":"UTC","RA_OF_ASC_NODE":"358.1971","DECAY_DATE":null,"EPOCH":"2021-09-20T17:59:26.858688","EPHEMERIS_TYPE":"0","LAUNCH_DATE":"2020-06-13","MEAN_MOTION_DOT":"-0.00000710","MEAN_MOTION_DDOT":"0.0000000000000","INCLINATION":"53.0554","OBJECT_ID":"2020-038N","FILE":"3121356","BSTAR":"-0.00002879300000","ECCENTRICITY":"0.00009490"},{"ELEMENT_SET_NO":"999","SITE":"AFETR","APOAPSIS":"548.071","MEAN_ELEMENT_THEORY":"SGP4","TLE_LINE1":"1 45743U 20038P   21263.71644650 -.00000708  00000-0 -28683-4 0  9991","ARG_OF_PERICENTER":"93.4042","PERIOD":"95.593","OBJECT_TYPE":"PAYLOAD","MEAN_ANOMALY":"266.7082","NORAD_CAT_ID":"45743","MEAN_MOTION":"15.06386430","CENTER_NAME":"EARTH","PERIAPSIS":"546.439","SEMIMAJOR_AXIS":"6925.390","COUNTRY_CODE":"US","REV_AT_EPOCH":"7036","RCS_SIZE":"LARGE","TLE_LINE2":"2 45743  53.0561 358.3489 0001178  93.4042 266.7082 15.06386430 70367","MEAN_MOTION_DDOT":"0.0000000000000","MEAN_MOTION_DOT":"-0.00000708","LAUNCH_DATE":"2020-06-13","EPHEMERIS_TYPE":"0","EPOCH":"2021-09-20T17:11:40.977600","ECCENTRICITY":"0.00011780","BSTAR":"-0.00002868300000","FILE":"3121356","INCLINATION":"53.0561","OBJECT_ID":"2020-038P","GP_ID":"185122371","OBJECT_NAME":"STARLINK-1483","DECAY_DATE":null,"RA_OF_ASC_NODE":"358.3489","TIME_SYSTEM":"UTC","CLASSIFICATION_TYPE":"U","REF_FRAME":"TEME"},{"SEMIMAJOR_AXIS":"6925.364","COUNTRY_CODE":"US","PERIAPSIS":"546.385","RCS_SIZE":"LARGE","TLE_LINE2":"2 45744  53.0565 358.5513 0001219 102.8560 257.2565 15.06394952 70367","REV_AT_EPOCH":"7036","APOAPSIS":"548.073","MEAN_ELEMENT_THEORY":"SGP4","TLE_LINE1":"1 45744U 20038Q   21263.67221016 -.00000713  00000-0 -29005-4 0  9999","ARG_OF_PERICENTER":"102.8560","PERIOD":"95.592","SITE":"AFETR","ELEMENT_SET_NO":"999","CENTER_NAME":"EARTH","MEAN_MOTION":"15.06394952","OBJECT_TYPE":"PAYLOAD","MEAN_ANOMALY":"257.2565","NORAD_CAT_ID":"45744","OBJECT_NAME":"STARLINK-1500","GP_ID":"185122121","REF_FRAME":"TEME","DECAY_DATE":null,"RA_OF_ASC_NODE":"358.5513","TIME_SYSTEM":"UTC","CLASSIFICATION_TYPE":"U","LAUNCH_DATE":"2020-06-13","EPHEMERIS_TYPE":"0","EPOCH":"2021-09-20T16:07:58.957824","MEAN_MOTION_DDOT":"0.0000000000000","MEAN_MOTION_DOT":"-0.00000713","FILE":"3121356","INCLINATION":"53.0565","OBJECT_ID":"2020-038Q","ECCENTRICITY":"0.00012190","BSTAR":"-0.00002900500000"},{"SEMIMAJOR_AXIS":"6925.357","COUNTRY_CODE":"US","PERIAPSIS":"546.407","TLE_LINE2":"2 45745  53.0562 358.2998 0001176 113.7412 246.3700 15.06397313 70362","RCS_SIZE":"LARGE","REV_AT_EPOCH":"7036","MEAN_ELEMENT_THEORY":"SGP4","APOAPSIS":"548.036","TLE_LINE1":"1 45745U 20038R   21263.72749761  .00001139  00000-0  95326-4 0  9998","ARG_OF_PERICENTER":"113.7412","PERIOD":"95.592","ELEMENT_SET_NO":"999","SITE":"AFETR","CENTER_NAME":"EARTH","MEAN_MOTION":"15.06397313","OBJECT_TYPE":"PAYLOAD","MEAN_ANOMALY":"246.3700","NORAD_CAT_ID":"45745","OBJECT_NAME":"STARLINK-1503","GP_ID":"185120869","REF_FRAME":"TEME","DECAY_DATE":null,"RA_OF_ASC_NODE":"358.2998","TIME_SYSTEM":"UTC","CLASSIFICATION_TYPE":"U","LAUNCH_DATE":"2020-06-13","EPHEMERIS_TYPE":"0","EPOCH":"2021-09-20T17:27:35.793504","MEAN_MOTION_DDOT":"0.0000000000000","MEAN_MOTION_DOT":"0.00001139","FILE":"3121356","INCLINATION":"53.0562","OBJECT_ID":"2020-038R","ECCENTRICITY":"0.00011760","BSTAR":"0.00009532600000"}];
